{
    "links": {
        "self": "http://www.neowsapp.com/rest/v1/neo/3772990?api_key=iIulBulltgU6a56xZRHN4H3l9WmuAYTsLGpBGhQ2"
    },
    "id": "3772990",
    "neo_reference_id": "3772990",
    "name": "(2017 FU101)",
    "designation": "2017 FU101",
    "nasa_jpl_url": "http://ssd.jpl.nasa.gov/sbdb.cgi?sstr=3772990",
    "absolute_magnitude_h": 27.9,
    "estimated_diameter": {
        "kilometers": {
            "estimated_diameter_min": 0.0069912523,
            "estimated_diameter_max": 0.0156329154
        },
        "meters": {
            "estimated_diameter_min": 6.9912523225,
            "estimated_diameter_max": 15.6329154409
        },
        "miles": {
            "estimated_diameter_min": 0.0043441614,
            "estimated_diameter_max": 0.0097138403
        },
        "feet": {
            "estimated_diameter_min": 22.9371802696,
            "estimated_diameter_max": 51.289094295
        }
    },
    "is_potentially_hazardous_asteroid": false,
    "close_approach_data": [
        {
            "close_approach_date": "2015-01-05",
            "close_approach_date_full": "2015-Jan-05 13:02",
            "epoch_date_close_approach": 1420462920000,
            "relative_velocity": {
                "kilometers_per_second": "18.9954813148",
                "kilometers_per_hour": "68383.732733428",
                "miles_per_hour": "42490.9921531681"
            },
            "miss_distance": {
                "astronomical": "0.4389878437",
                "lunar": "170.7662711993",
                "kilometers": "65671646.373412919",
                "miles": "40806468.8353355222"
            },
            "orbiting_body": "Earth"
        },
        {
            "close_approach_date": "2017-03-24",
            "close_approach_date_full": "2017-Mar-24 16:36",
            "epoch_date_close_approach": 1490373360000,
            "relative_velocity": {
                "kilometers_per_second": "6.1183059323",
                "kilometers_per_hour": "22025.9013564482",
                "miles_per_hour": "13686.0385400664"
            },
            "miss_distance": {
                "astronomical": "0.0210249481",
                "lunar": "8.1787048109",
                "kilometers": "3145287.452620547",
                "miles": "1954390.9967436686"
            },
            "orbiting_body": "Earth"
        }
    ],
    "orbital_data": {
        "orbit_id": "4",
        "orbit_determination_date": "2019-07-19 05:26:14",
        "first_observation_date": "2017-03-27",
        "last_observation_date": "2017-03-29",
        "data_arc_in_days": 2,
        "observations_used": 38,
        "orbit_uncertainty": "7",
        "minimum_orbit_intersection": ".0155059",
        "jupiter_tisserand_invariant": "4.208",
        "epoch_osculation": "2459000.5",
        "eccentricity": ".3936055275570515",
        "semi_major_axis": "1.63742645995665",
        "inclination": "3.055020356230083",
        "ascending_node_longitude": "11.59896454085387",
        "orbital_period": "765.3165992138493",
        "perihelion_distance": ".9929263543495378",
        "perihelion_argument": "149.7684030397945",
        "aphelion_distance": "2.281926565563763",
        "perihelion_time": "2459348.936291885479",
        "mean_anomaly": "196.0978120589252",
        "mean_motion": ".4703935604817669",
        "equinox": "J2000",
        "orbit_class": {
            "orbit_class_type": "APO",
            "orbit_class_description": "Near-Earth asteroid orbits which cross the Earth’s orbit similar to that of 1862 Apollo",
            "orbit_class_range": "a (semi-major axis) > 1.0 AU; q (perihelion) < 1.017 AU"
        }
    },
    "is_sentry_object": false
}